[{"OBJECT_NAME":"STARLINK-34461","OBJECT_ID":"2025-129G","EPOCH":"2026-03-09T10:16:06.900096","MEAN_MOTION":14.98331937,"ECCENTRICITY":0.0003089,"INCLINATION":70.0007,"RA_OF_ASC_NODE":75.294,"ARG_OF_PERICENTER":266.5562,"MEAN_ANOMALY":93.5244,"EPHEMERIS_TYPE":0,"CLASSIFICATION_TYPE":"U","NORAD_CAT_ID":64418,"ELEMENT_SET_NO":999,"REV_AT_EPOCH":4124,"BSTAR":-5.079014e-5,"MEAN_MOTION_DOT":-6.99e-6,"MEAN_MOTION_DDOT":0},{"OBJECT_NAME":"DELTA 1 DEB","OBJECT_ID":"1977-065AE","EPOCH":"2026-03-09T11:34:18.251616","MEAN_MOTION":13.74851839,"ECCENTRICITY":0.06655628,"INCLINATION":29.0857,"RA_OF_ASC_NODE":187.1877,"ARG_OF_PERICENTER":7.8635,"MEAN_ANOMALY":353.1809,"EPHEMERIS_TYPE":0,"CLASSIFICATION_TYPE":"U","NORAD_CAT_ID":10201,"ELEMENT_SET_NO":999,"REV_AT_EPOCH":39513,"BSTAR":0.00029282794,"MEAN_MOTION_DOT":1.63e-5,"MEAN_MOTION_DDOT":0}]
